METOP-A
1 29499U 06044A   09296.70968616 +.00000037 +00000-0 +37132-4 0 09435
2 29499 098.7083 354.8934 0000709 084.9004 275.2266 14.21487820156275